OSCAR 7 (AO-7)          
1 07530U 74089B   22228.17901843 -.00000038  00000+0  48733-4 0  9992
2 07530 101.9090 208.2474 0011887 288.7504  82.0746 12.53656313185199
PHASE 3B (AO-10)        
1 14129U 83058B   22228.00738729 -.00000317  00000+0  00000+0 0  9993
2 14129  26.4818  86.5563 6016694  98.4264 329.8543  2.05871154266647
UOSAT 2 (UO-11)         
1 14781U 84021B   22228.20303143  .00000660  00000+0  85812-4 0  9997
2 14781  97.6215 212.9283 0009719 120.0314 240.1866 14.83755005 69906
LUSAT (LO-19)           
1 20442U 90005G   22228.14614088  .00000079  00000+0  45463-4 0  9995
2 20442  98.7986 193.9342 0011751 359.4140   0.7028 14.33077352701711
EYESAT A (AO-27)        
1 22825U 93061C   22227.84130463  .00000031  00000+0  30004-4 0  9996
2 22825  98.8840 260.1245 0007550 234.2977 125.7503 14.30185706506648
ITAMSAT (IO-26)         
1 22826U 93061D   22228.05996869  .00000047  00000+0  35860-4 0  9993
2 22826  98.8783 260.2233 0008269 219.0976 140.9609 14.30533326507182
RADIO ROSTO (RS-15)     
1 23439U 94085A   22227.90796066 -.00000039  00000+0  10000-3 0  9991
2 23439  64.8127  49.4518 0167773 262.3609  95.8232 11.27571918138194
JAS-2 (FO-29)           
1 24278U 96046B   22228.03179111 -.00000019  00000+0  13184-4 0  9998
2 24278  98.5154 243.5256 0351195 128.6124 234.7019 13.53118848283913
TECHSAT 1B (GO-32)      
1 25397U 98043D   22228.44450569  .00000038  00000+0  36257-4 0  9990
2 25397  98.8211 179.0828 0000616 357.5504   2.5671 14.23765801252180
ISS (ZARYA)             
1 25544U 98067A   22228.48311150  .00005553  00000+0  10448-3 0  9996
2 25544  51.6421  37.8798 0005525 126.9629 327.6000 15.50197851354535
PCSAT (NO-44)           
1 26931U 01043C   22227.59235414  .00000031  00000+0  43358-4 0  9997
2 26931  67.0498 265.7493 0006829 257.6285 102.4052 14.30723894 89869
SAUDISAT 1C (SO-50)     
1 27607U 02058C   22228.20927476  .00000412  00000+0  76890-4 0  9990
2 27607  64.5547 119.0305 0080761 282.9703  76.2390 14.76201936 57409
CUTE-1 (CO-55)          
1 27844U 03031E   22228.00457924  .00000154  00000+0  88782-4 0  9995
2 27844  98.6796 234.7933 0008725 292.9762  67.0495 14.22479868992374
CUBESAT XI-IV (CO-57)   
1 27848U 03031J   22228.47870959  .00000134  00000+0  80465-4 0  9995
2 27848  98.6841 235.7674 0008746 307.2719  52.7660 14.22033564992247
MOZHAYETS 4 (RS-22)     
1 27939U 03042A   22228.40394867  .00000469  00000+0  91622-4 0  9998
2 27939  98.2001   9.1348 0013231  24.7161 335.4705 14.67425376  9830
CUBESAT XI-V            
1 28895U 05043F   22227.82806767  .00000599  00000+0  12216-3 0  9990
2 28895  98.1140 358.3177 0015612 317.8109  42.1891 14.64426231896107
FALCONSAT-3             
1 30776U 07006E   22227.69795300  .00034687  00000+0  45868-3 0  9991
2 30776  35.4292 231.0407 0004202 237.7545 122.2781 15.57300486858810
CUTE-1.7+APD II (CO-65) 
1 32785U 08021C   22227.87599547  .00001529  00000+0  16495-3 0  9999
2 32785  97.6619 196.8622 0013718  42.5083 317.7194 14.89758098775405
DELFI-C3 (DO-64)        
1 32789U 08021G   22227.81874929  .00010192  00000+0  54906-3 0  9992
2 32789  97.3364 252.0092 0012037 115.6804 244.5673 15.14931079781019
SEEDS II (CO-66)        
1 32791U 08021J   22228.16666705  .00001924  00000+0  19057-3 0  9996
2 32791  97.6160 202.5744 0012594 359.3993   0.7210 14.92922897776181
YUBILEINY (RS-30)       
1 32953U 08025A   22228.41872663  .00000024  00000+0  10000-3 0  9999
2 32953  82.5047 146.6558 0019822 126.3391 233.9524 12.43112545645788
KKS-1 (KISEKI)          
1 33499U 09002H   22227.82906360  .00000481  00000+0  77428-4 0  9992
2 33499  98.2093 110.8378 0010114 120.6839 239.5367 14.76084582729430
SWISSCUBE               
1 35932U 09051B   22228.33314493  .00000457  00000+0  11272-3 0  9994
2 35932  98.5624  85.9258 0006607 217.1645 142.9095 14.56926289684853
BEESAT-1                
1 35933U 09051C   22228.08168366  .00000353  00000+0  89421-4 0  9990
2 35933  98.5562  87.2557 0004644 230.6418 129.4368 14.56934452684932
ITUPSAT1                
1 35935U 09051E   22228.34182209  .00000353  00000+0  91181-4 0  9999
2 35935  98.5662  87.5628 0006915 235.7304 124.3238 14.56038814684623
XIWANG-1 (HOPE-1)       
1 36122U 09072B   22228.46591599 -.00000030  00000+0  32880-4 0  9994
2 36122 100.1877 197.6351 0007153 198.4224 161.6632 13.16370978608811
JUGNU                   
1 37839U 11058B   22228.24865361  .00000372  00000+0  56449-4 0  9999
2 37839  19.9598 172.7781 0019084  96.4303  52.7349 14.12798740560715
SRMSAT                  
1 37841U 11058D   22227.76635146  .00000341  00000+0  41882-4 0  9995
2 37841  19.9711 256.3954 0011647 276.0366 241.8044 14.10765602559628
M-CUBED & EXP-1 PRIME   
1 37855U 11061F   22228.16182300  .00008419  00000+0  36446-3 0  9991
2 37855 101.7177  18.9005 0151273 243.3365 115.2293 15.13144359590735
STRAND-1                
1 39090U 13009E   22228.11191652  .00000123  00000+0  57596-4 0  9997
2 39090  98.4027  64.6846 0010318  93.1943 267.0424 14.35314024495975
SOMP                    
1 39134U 13015E   22227.42235709  .00010201  00000+0  35187-3 0  9997
2 39134  64.8595 228.1573 0035659 271.5630  88.1417 15.29835009515876
BEESAT-3                
1 39135U 13015F   22227.96184660  .00007433  00000+0  29985-3 0  9998
2 39135  64.8641 263.9018 0039326 276.5206  83.1447 15.24824307515613
BEESAT-2                
1 39136U 13015G   22227.58971024  .00006499  00000+0  27568-3 0  9991
2 39136  64.8730 273.6302 0020408 297.0362  62.8684 15.23781740514921
ZACUBE-1 (TSHEPISOSAT)  
1 39417U 13066B   22228.17053859  .00001143  00000+0  14486-3 0  9998
2 39417  97.6409 196.9929 0056736 207.4518 152.3696 14.82510396471979
GOMX-1                  
1 39430U 13066Q   22228.54845240  .00000614  00000+0  11810-3 0  9997
2 39430  97.8047 132.3091 0147981 215.0141 144.1249 14.60303930465064
CUBEBUG-2 (LO-74)       
1 39440U 13066AA  22228.13610148  .00001291  00000+0  18099-3 0  9998
2 39440  97.7298 183.2011 0077136 298.5572  60.7890 14.77176640470297
FUNCUBE-1 (AO-73)       
1 39444U 13066AE  22227.87328328  .00001272  00000+0  15642-3 0  9998
2 39444  97.6289 199.1228 0055849 196.0771 163.8673 14.83621835470928
UWE-3                   
1 39446U 13066AG  22228.46038900  .00001145  00000+0  15361-3 0  9997
2 39446  97.6898 189.9509 0066857 253.3822 106.0042 14.79736599469926
SPROUT                  
1 39770U 14029E   22228.30393812  .00005946  00000+0  59939-3 0  9998
2 39770  97.9488 345.6527 0007102 247.3880 112.6558 14.91489844446584
UNISAT-6                
1 40012U 14033C   22228.48967668  .00000833  00000+0  12796-3 0  9999
2 40012  97.6631  53.2509 0056530 325.9029  33.8554 14.75025378438830
DUCHIFAT-1              
1 40021U 14033M   22227.51811936  .00002024  00000+0  19941-3 0  9991
2 40021  98.0152 178.8140 0011712 199.2156 160.8622 14.93171486443514
QB50P1                  
1 40025U 14033R   22228.06812583  .00001608  00000+0  16961-3 0  9991
2 40025  97.9612 165.9447 0011089 215.1732 144.8755 14.90709564443159
NUDT-PHONESAT           
1 40900U 15049B   22228.54541330  .00024139  00000+0  63410-3 0  9998
2 40900  97.3976 246.9425 0010814  77.3921  73.6070 15.38550981383845
ZDPS 2A                 
1 40901U 15049C   22227.83284492  .00008982  00000+0  36147-3 0  9998
2 40901  97.4595 236.3773 0013228 131.4447 228.7929 15.25039858382509
ZDPS 2B                 
1 40902U 15049D   22228.52393392  .00009320  00000+0  37204-3 0  9998
2 40902  97.4673 234.8211 0013081 126.3415 334.5781 15.25300026382580
XW-2A                   
1 40903U 15049E   22228.52120444  .00019334  00000+0  28201-3 0  9998
2 40903  97.1741 287.2180 0007345 251.4063 215.8372 15.55694714388593
KAITUO 1A               
1 40904U 15049F   22228.55113993  .00003736  00000+0  18513-3 0  9997
2 40904  97.4954 230.5092 0014397 154.5640 301.8108 15.18290457381989
2015-049G               
1 40905U 15049G   22228.49596406  .00002383  00000+0  12437-3 0  9991
2 40905  97.5155 227.6614 0015462 158.7341 352.7278 15.16812129381717
XW-2C                   
1 40906U 15049H   22228.53162274  .00004238  00000+0  20195-3 0  9990
2 40906  97.4943 231.4869 0014748 143.2347 316.3416 15.19569380382046
XW-2D                   
1 40907U 15049J   22228.52754142  .00004907  00000+0  22854-3 0  9998
2 40907  97.4926 231.5176 0014207 138.5518 320.2017 15.20292355382090
LILACSAT-2              
1 40908U 15049K   22228.50293212  .00002091  00000+0  11188-3 0  9993
2 40908  97.5180 228.5067 0015561 162.6296 349.2775 15.16070207381584
XW-2E                   
1 40909U 15049L   22228.49369075  .00007721  00000+0  31697-3 0  9995
2 40909  97.4650 236.1500 0013726 120.2062  32.1447 15.24412554382551
XW-2F                   
1 40910U 15049M   22228.50776530  .00007637  00000+0  31846-3 0  9999
2 40910  97.4723 235.3120 0014489 121.0859  29.8334 15.23877103382320
XW-2B                   
1 40911U 15049N   22228.50092374  .00004685  00000+0  21909-3 0  9996
2 40911  97.4922 232.0735 0014174 140.4355  10.5755 15.20172441381979
KAITUO 1B               
1 40912U 15049P   22228.51853620  .00009170  00000+0  34648-3 0  9995
2 40912  97.4364 239.6715 0014617  91.1513  59.7932 15.27114500382917
TIANWANG 1A (TW-1A)     
1 40928U 15051D   22228.52406487  .00043446  00000+0  45354-3 0  9991
2 40928  97.0343 250.8278 0008868 145.0945   9.7312 15.64339545387613
LAPAN-A2                
1 40931U 15052B   22228.01483857  .00001020  00000+0  52472-4 0  9998
2 40931   5.9980 104.1735 0014103 294.9000  64.9815 14.76844759372161
E-ST@R-II               
1 41459U 16025D   22228.43172377  .00009548  00000+0  40122-3 0  9994
2 41459  98.1915  38.0942 0143115  65.9336 295.6762 15.14736474346575
AAUSAT 4                
1 41460U 16025E   22228.43074095  .00014321  00000+0  52351-3 0  9996
2 41460  98.1828  44.8693 0121564  40.0001 321.0040 15.21424479347059
